{
  "type": "FeatureCollection",
  "features": [
    {
      "type": "Feature",
      "properties": {
        "norad_id": 41556,
        "name": "ZIYUAN 3-2 (ZY 3-2)",
        "group": "resource",
        "lat": -36.32975031920999,
        "lon": 67.33937718773866,
        "alt_km": 505.8309308746366,
        "timestamp": "2025-12-13T16:48:32.370732+00:00",
        "meta_object_name": "ZIYUAN 3-2 (ZY 3-2)",
        "meta_object_id": "2016-033A",
        "meta_epoch": "2025-12-12T23:36:27.778176",
        "meta_mean_motion": 15.21508001,
        "meta_eccentricity": 0.00124978,
        "meta_inclination": 97.4042,
        "meta_ra_of_asc_node": 61.1468,
        "meta_arg_of_pericenter": 248.0735,
        "meta_mean_anomaly": 111.9173,
        "meta_ephemeris_type": 0,
        "meta_classification_type": "U",
        "meta_norad_cat_id": 41556,
        "meta_element_set_no": 999,
        "meta_rev_at_epoch": 52967,
        "meta_bstar": 0.00046084695,
        "meta_mean_motion_dot": 0.00010329,
        "meta_mean_motion_ddot": 0,
        "tle_line1": "1 41556U 16033A   25346.98365484  .00010329  00000+0  46085-3 0  9991",
        "tle_line2": "2 41556  97.4042  61.1468 0012497 248.0735 111.9173 15.21508001529672"
      },
      "geometry": {
        "type": "Point",
        "coordinates": [
          67.33937718773866,
          -36.32975031920999
        ]
      }
    },
    {
      "type": "Feature",
      "properties": {
        "norad_id": 41599,
        "name": "CARTOSAT-2C",
        "group": "resource",
        "lat": -77.1798839185712,
        "lon": -170.30659561896846,
        "alt_km": 522.4004900515647,
        "timestamp": "2025-12-13T16:48:32.370742+00:00",
        "meta_object_name": "CARTOSAT-2C",
        "meta_object_id": "2016-040A",
        "meta_epoch": "2025-12-13T01:26:39.071616",
        "meta_mean_motion": 15.19299031,
        "meta_eccentricity": 0.00108573,
        "meta_inclination": 97.4766,
        "meta_ra_of_asc_node": 44.307,
        "meta_arg_of_pericenter": 63.9487,
        "meta_mean_anomaly": 296.2864,
        "meta_ephemeris_type": 0,
        "meta_classification_type": "U",
        "meta_norad_cat_id": 41599,
        "meta_element_set_no": 999,
        "meta_rev_at_epoch": 52545,
        "meta_bstar": 0.00031631097,
        "meta_mean_motion_dot": 6.618e-05,
        "meta_mean_motion_ddot": 0,
        "tle_line1": "1 41599U 16040A   25347.06017444  .00006618  00000+0  31631-3 0  9993",
        "tle_line2": "2 41599  97.4766  44.3070 0010857  63.9487 296.2864 15.19299031525453"
      },
      "geometry": {
        "type": "Point",
        "coordinates": [
          -170.30659561896846,
          -77.1798839185712
        ]
      }
    },
    {
      "type": "Feature",
      "properties": {
        "norad_id": 41601,
        "name": "SKYSAT-C1",
        "group": "resource",
        "lat": 0.5091706781918106,
        "lon": 24.597473097330774,
        "alt_km": 469.48919281066264,
        "timestamp": "2025-12-13T16:48:32.370752+00:00",
        "meta_object_name": "SKYSAT-C1",
        "meta_object_id": "2016-040C",
        "meta_epoch": "2025-12-12T20:26:09.515328",
        "meta_mean_motion": 15.32593045,
        "meta_eccentricity": 0.00023392,
        "meta_inclination": 96.983,
        "meta_ra_of_asc_node": 23.8587,
        "meta_arg_of_pericenter": 15.0651,
        "meta_mean_anomaly": 345.0662,
        "meta_ephemeris_type": 0,
        "meta_classification_type": "U",
        "meta_norad_cat_id": 41601,
        "meta_element_set_no": 999,
        "meta_rev_at_epoch": 52929,
        "meta_bstar": 0.00043499396,
        "meta_mean_motion_dot": 0.00013629,
        "meta_mean_motion_ddot": 0,
        "tle_line1": "1 41601U 16040C   25346.85149902  .00013629  00000+0  43499-3 0  9993",
        "tle_line2": "2 41601  96.9830  23.8587 0002339  15.0651 345.0662 15.32593045529297"
      },
      "geometry": {
        "type": "Point",
        "coordinates": [
          24.597473097330774,
          0.5091706781918106
        ]
      }
    },
    {
      "type": "Feature",
      "properties": {
        "norad_id": 41603,
        "name": "LAPAN-A3",
        "group": "resource",
        "lat": 38.73687104350513,
        "lon": 170.99596298519327,
        "alt_km": 474.80290442626483,
        "timestamp": "2025-12-13T16:48:32.370763+00:00",
        "meta_object_name": "LAPAN-A3",
        "meta_object_id": "2016-040E",
        "meta_epoch": "2025-12-13T00:30:56.055168",
        "meta_mean_motion": 15.31554848,
        "meta_eccentricity": 0.00095966,
        "meta_inclination": 97.1433,
        "meta_ra_of_asc_node": 344.5675,
        "meta_arg_of_pericenter": 332.9582,
        "meta_mean_anomaly": 27.1159,
        "meta_ephemeris_type": 0,
        "meta_classification_type": "U",
        "meta_norad_cat_id": 41603,
        "meta_element_set_no": 999,
        "meta_rev_at_epoch": 52630,
        "meta_bstar": 0.00020607993,
        "meta_mean_motion_dot": 6.213e-05,
        "meta_mean_motion_ddot": 0,
        "tle_line1": "1 41603U 16040E   25347.02148212  .00006213  00000+0  20608-3 0  9996",
        "tle_line2": "2 41603  97.1433 344.5675 0009596 332.9582  27.1159 15.31554848526303"
      },
      "geometry": {
        "type": "Point",
        "coordinates": [
          170.99596298519327,
          38.73687104350513
        ]
      }
    },
    {
      "type": "Feature",
      "properties": {
        "norad_id": 41604,
        "name": "BIROS",
        "group": "resource",
        "lat": 14.333332874040485,
        "lon": -159.01073894647138,
        "alt_km": 300.72016515997257,
        "timestamp": "2025-12-13T16:48:32.370774+00:00",
        "meta_object_name": "BIROS",
        "meta_object_id": "2016-040F",
        "meta_epoch": "2025-12-12T15:56:49.185024",
        "meta_mean_motion": 15.89700477,
        "meta_eccentricity": 0.00033958,
        "meta_inclination": 97.069,
        "meta_ra_of_asc_node": 18.094,
        "meta_arg_of_pericenter": 150.0961,
        "meta_mean_anomaly": 210.0507,
        "meta_ephemeris_type": 0,
        "meta_classification_type": "U",
        "meta_norad_cat_id": 41604,
        "meta_element_set_no": 999,
        "meta_rev_at_epoch": 52871,
        "meta_bstar": 0.00075384417,
        "meta_mean_motion_dot": 0.00220233,
        "meta_mean_motion_ddot": 1.9447493e-05,
        "tle_line1": "1 41604U 16040F   25346.66445816  .00220233  19447-4  75384-3 0  9997",
        "tle_line2": "2 41604  97.0690  18.0940 0003395 150.0961 210.0507 15.89700477528718"
      },
      "geometry": {
        "type": "Point",
        "coordinates": [
          -159.01073894647138,
          14.333332874040485
        ]
      }
    },
    {
      "type": "Feature",
      "properties": {
        "norad_id": 41727,
        "name": "GAOFEN-3",
        "group": "resource",
        "lat": -30.114254831475513,
        "lon": -1.8090077396966604,
        "alt_km": 757.0993698538023,
        "timestamp": "2025-12-13T16:48:32.370784+00:00",
        "meta_object_name": "GAOFEN-3",
        "meta_object_id": "2016-049A",
        "meta_epoch": "2025-12-13T00:17:57.301728",
        "meta_mean_motion": 14.42214033,
        "meta_eccentricity": 0.00014195,
        "meta_inclination": 98.4044,
        "meta_ra_of_asc_node": 352.5944,
        "meta_arg_of_pericenter": 60.3083,
        "meta_mean_anomaly": 299.8248,
        "meta_ephemeris_type": 0,
        "meta_classification_type": "U",
        "meta_norad_cat_id": 41727,
        "meta_element_set_no": 999,
        "meta_rev_at_epoch": 49181,
        "meta_bstar": 8.5786751e-05,
        "meta_mean_motion_dot": 2.39e-06,
        "meta_mean_motion_ddot": 0,
        "tle_line1": "1 41727U 16049A   25347.01246877  .00000239  00000+0  85787-4 0  9999",
        "tle_line2": "2 41727  98.4044 352.5944 0001419  60.3083 299.8248 14.42214033491818"
      },
      "geometry": {
        "type": "Point",
        "coordinates": [
          -1.8090077396966604,
          -30.114254831475513
        ]
      }
    },
    {
      "type": "Feature",
      "properties": {
        "norad_id": 41771,
        "name": "SKYSAT-C4",
        "group": "resource",
        "lat": -30.645310678303087,
        "lon": 16.978778370234892,
        "alt_km": 446.4749483368814,
        "timestamp": "2025-12-13T16:48:32.370794+00:00",
        "meta_object_name": "SKYSAT-C4",
        "meta_object_id": "2016-058B",
        "meta_epoch": "2025-12-12T23:48:49.840128",
        "meta_mean_motion": 15.42258103,
        "meta_eccentricity": 0.00015484,
        "meta_inclination": 96.9382,
        "meta_ra_of_asc_node": 12.1675,
        "meta_arg_of_pericenter": 133.444,
        "meta_mean_anomaly": 226.6938,
        "meta_ephemeris_type": 0,
        "meta_classification_type": "U",
        "meta_norad_cat_id": 41771,
        "meta_element_set_no": 999,
        "meta_rev_at_epoch": 51671,
        "meta_bstar": 0.00049169266,
        "meta_mean_motion_dot": 0.00021089,
        "meta_mean_motion_ddot": 0,
        "tle_line1": "1 41771U 16058B   25346.99224352  .00021089  00000+0  49169-3 0  9997",
        "tle_line2": "2 41771  96.9382  12.1675 0001548 133.4440 226.6938 15.42258103516715"
      },
      "geometry": {
        "type": "Point",
        "coordinates": [
          16.978778370234892,
          -30.645310678303087
        ]
      }
    }
  ]
}